KUIPER-00044            
1 64505U 25134F   25274.17704874  .00007417  00000+0  99841-3 0  9995
2 64505  51.8979 231.9582 0014552 103.9440 256.3142 14.79982230 16262
KUIPER-00046            
1 64506U 25134G   25274.10505472  .00010246  00000+0  13880-2 0  9994
2 64506  51.8973 228.6588 0012729 114.9378 245.2908 14.79365895 16306
KUIPER-00047            
1 64507U 25134H   25274.50002315  .00018963  00000+0  63505-3 0  9991
2 64507  51.8653 209.1072 0011236 128.1760 351.8024 15.30914236  5766
KUIPER-00048            
1 64508U 25134J   25274.50002315 -.01042219  00000+0 -36074-1 0  9995
2 64508  51.8782 207.7777 0003237 115.0087  20.5225 15.32062959  4293
KUIPER-00049            
1 64509U 25134K   25274.50002315 -.00017797  00000+0 -16255-2 0  9998
2 64509  51.8905 213.5352 0006134  90.5983 134.5842 14.94161597  3976
KUIPER-00050            
1 64510U 25134L   25274.03075590 -.00054342  00000+0 -47915-2 0  9997
2 64510  51.8893 216.8228 0005462 144.7221 215.4110 14.96123457 16462
KUIPER-00051            
1 64511U 25134M   25274.50002315 -.01997253  00000+0 -15790+0 0  9996
2 64511  51.8900 211.9867 0005562 103.3258  67.4511 15.03596261  5632
KUIPER-00052            
1 64512U 25134N   25274.09468535  .00209272  00000+0  25538-2 0  9999
2 64512  51.8719 200.9437 0007958 125.9564 234.2172 15.59202694 16682
